KUIPER-00061            
1 64521U 25134X   25220.20892075  .00021120  00000+0  60370-3 0  9991
2 64521  51.8754 110.3792 0005211 275.8002  84.2390 15.35927804  7812
KUIPER-00062            
1 64522U 25134Y   25220.58335648 -.00333452  00000+0 -14093-1 0  9996
2 64522  51.8785 109.0946 0006938 267.5069 135.2776 15.24192021  7864
KUIPER-00063            
1 64523U 25134Z   25220.16668981 -.00801373  00000+0 -30471-1 0  9990
2 64523  51.8777 110.5389 0003038 235.0652 276.9029 15.28789513  7800
KUIPER-00064            
1 64524U 25134AA  25220.58335648  .00061829  00000+0  20000-2 0  9998
2 64524  51.8790 108.2643 0001238 311.8605 127.5715 15.31473611  8171
KUIPER-00065            
1 64525U 25134AB  25220.58335648  .00041846  00000+0  19894-2 0  9995
2 64525  51.8806 109.4417 0008122 278.3575 245.0177 15.18766008  8093
KUIPER-00066            
1 64526U 25134AC  25220.58335648 -.00754862  00000+0 -26181-1 0  9993
2 64526  51.8788 108.2926 0001335 222.3256 188.9914 15.31608950  7874
KUIPER-00069            
1 64816U 25151A   25220.04322338  .00014651  00000+0  42313-3 0  9997
2 64816  51.8772 177.7674 0005062 215.8104 144.2543 15.35879968  4671
KUIPER-00070            
1 64817U 25151B   25220.50002315 -.00494361  00000+0 -20717-1 0  9993
2 64817  51.8833 176.1273 0006924 253.0960 215.1818 15.25196391  4731
